IRIDIUM 116             
1 43072U 17083C   25021.46290870 -.00000220  00000+0 -85772-4 0  9999
2 43072  86.4010 175.8834 0002109  91.5712 268.5726 14.34216807370822
IRIDIUM 130             
1 43073U 17083D   25021.50096199  .00000762  00000+0  26487-3 0  9999
2 43073  86.4015 176.0920 0002097  97.5783 262.5651 14.34218464370773
IRIDIUM 151             
1 43074U 17083E   25021.47559163  .00000126  00000+0  37869-4 0  9992
2 43074  86.4010 175.9238 0002107  90.3635 269.7802 14.34218247370796
IRIDIUM 134             
1 43075U 17083F   25021.51364565  .00000555  00000+0  19105-3 0  9996
2 43075  86.4013 175.9090 0002150  96.4723 263.6718 14.34219462370765
IRIDIUM 137             
1 43076U 17083G   25021.45656534  .00000178  00000+0  56338-4 0  9991
2 43076  86.4011 176.0148 0002501  86.7929 273.3552 14.34217745370823
IRIDIUM 141             
1 43077U 17083H   25021.51998864  .00000504  00000+0  17293-3 0  9993
2 43077  86.4004 175.8484 0001655  96.7745 263.3639 14.34219372370836
IRIDIUM 153             
1 43078U 17083J   25021.40239661  .00000387  00000+0  13111-3 0  9999
2 43078  86.4013 144.4254 0001341  99.8089 260.3258 14.34216721371921
IRIDIUM 131             
1 43079U 17083K   25021.50729782  .00000755  00000+0  26259-3 0  9995
2 43079  86.4012 176.0053 0001906  89.1961 270.9453 14.34223257370764
